{"type": "FeatureCollection", "features": [ {"type": "Feature", "properties": {"norad_id": 42741, "name": "EUTELSAT 172B", "group": "eutelsat", "lat": -0.014999367215377446, "lon": -27.523707344193276, "alt_km": 35789.14574657337, "timestamp": "2025-12-17T04:57:44.071172+00:00", "meta": {"OBJECT_NAME": "EUTELSAT 172B", "OBJECT_ID": "2017-029B", "EPOCH": "2025-12-16T15:53:15.299232", "MEAN_MOTION": 1.00265454, "ECCENTRICITY": 6.367e-05, "INCLINATION": 0.0438, "RA_OF_ASC_NODE": 143.4073, "ARG_OF_PERICENTER": 308.2434, "MEAN_ANOMALY": 44.1994, "EPHEMERIS_TYPE": 0, "CLASSIFICATION_TYPE": "U", "NORAD_CAT_ID": 42741, "ELEMENT_SET_NO": 999, "REV_AT_EPOCH": 3190, "BSTAR": 0, "MEAN_MOTION_DOT": 1.7e-07, "MEAN_MOTION_DDOT": 0}, "tle": {"line1": "1 42741U 17029B   25350.66198263  .00000017  00000+0  00000+0 0  9999", "line2": "2 42741   0.0438 143.4073 0000636 308.2434  44.1994  1.00265454 31907"}}, "geometry": {"type": "Point", "coordinates": [-27.523707344193276, -0.014999367215377446]}}, {"type": "Feature", "properties": {"norad_id": 44334, "name": "EUTELSAT 7C", "group": "eutelsat", "lat": -0.02175738724726522, "lon": 167.46005648477458, "alt_km": 35784.07372520752, "timestamp": "2025-12-17T04:57:44.071183+00:00", "meta": {"OBJECT_NAME": "EUTELSAT 7C", "OBJECT_ID": "2019-034B", "EPOCH": "2025-12-16T15:06:04.817088", "MEAN_MOTION": 1.00271584, "ECCENTRICITY": 0.00030764, "INCLINATION": 0.0725, "RA_OF_ASC_NODE": 176.9051, "ARG_OF_PERICENTER": 71.4959, "MEAN_ANOMALY": 70.6234, "EPHEMERIS_TYPE": 0, "CLASSIFICATION_TYPE": "U", "NORAD_CAT_ID": 44334, "ELEMENT_SET_NO": 999, "REV_AT_EPOCH": 500, "BSTAR": 0, "MEAN_MOTION_DOT": 7.2e-07, "MEAN_MOTION_DDOT": 0}, "tle": {"line1": "1 44334U 19034B   25350.62922242  .00000072  00000+0  00000+0 0  9996", "line2": "2 44334   0.0725 176.9051 0003076  71.4959  70.6234  1.00271584  5009"}}, "geometry": {"type": "Point", "coordinates": [167.46005648477458, -0.02175738724726522]}}, {"type": "Feature", "properties": {"norad_id": 44624, "name": "EUTELSAT 5 WEST B", "group": "eutelsat", "lat": -0.00812297529022251, "lon": 155.48717459263796, "alt_km": 35790.38427763695, "timestamp": "2025-12-17T04:57:44.071193+00:00", "meta": {"OBJECT_NAME": "EUTELSAT 5 WEST B", "OBJECT_ID": "2019-067A", "EPOCH": "2025-12-16T16:45:26.529408", "MEAN_MOTION": 1.00273404, "ECCENTRICITY": 0.00032128, "INCLINATION": 0.0718, "RA_OF_ASC_NODE": 328.0837, "ARG_OF_PERICENTER": 297.9628, "MEAN_ANOMALY": 65.9102, "EPHEMERIS_TYPE": 0, "CLASSIFICATION_TYPE": "U", "NORAD_CAT_ID": 44624, "ELEMENT_SET_NO": 999, "REV_AT_EPOCH": 2260, "BSTAR": 0, "MEAN_MOTION_DOT": -1.8e-07, "MEAN_MOTION_DDOT": 0}, "tle": {"line1": "1 44624U 19067A   25350.69822372 -.00000018  00000+0  00000+0 0  9995", "line2": "2 44624   0.0718 328.0837 0003212 297.9628  65.9102  1.00273404 22604"}}, "geometry": {"type": "Point", "coordinates": [155.48717459263796, -0.00812297529022251]}}, {"type": "Feature", "properties": {"norad_id": 45027, "name": "EUTELSAT KONNECT", "group": "eutelsat", "lat": 0.06330693784706941, "lon": 167.688581696627, "alt_km": 35789.11676710343, "timestamp": "2025-12-17T04:57:44.071204+00:00", "meta": {"OBJECT_NAME": "EUTELSAT KONNECT", "OBJECT_ID": "2020-005B", "EPOCH": "2025-12-16T16:48:56.195424", "MEAN_MOTION": 1.00270775, "ECCENTRICITY": 0.000134, "INCLINATION": 0.0734, "RA_OF_ASC_NODE": 96, "ARG_OF_PERICENTER": 191.486, "MEAN_ANOMALY": 57.5312, "EPHEMERIS_TYPE": 0, "CLASSIFICATION_TYPE": "U", "NORAD_CAT_ID": 45027, "ELEMENT_SET_NO": 999, "REV_AT_EPOCH": 2250, "BSTAR": 0, "MEAN_MOTION_DOT": 7.3e-07, "MEAN_MOTION_DDOT": 0}, "tle": {"line1": "1 45027U 20005B   25350.70065041  .00000073  00000+0  00000+0 0  9991", "line2": "2 45027   0.0734  96.0000 0001340 191.4860  57.5312  1.00270775 22507"}}, "geometry": {"type": "Point", "coordinates": [167.688581696627, 0.06330693784706941]}}, {"type": "Feature", "properties": {"norad_id": 49056, "name": "EUTELSAT QUANTUM", "group": "eutelsat", "lat": -0.019503824138022822, "lon": -151.80718629477644, "alt_km": 35780.2233463532, "timestamp": "2025-12-17T04:57:44.071215+00:00", "meta": {"OBJECT_NAME": "EUTELSAT QUANTUM", "OBJECT_ID": "2021-069B", "EPOCH": "2025-12-16T10:09:25.725024", "MEAN_MOTION": 1.00273452, "ECCENTRICITY": 0.00035682, "INCLINATION": 0.0118, "RA_OF_ASC_NODE": 5.206, "ARG_OF_PERICENTER": 272.6079, "MEAN_ANOMALY": 7.5753, "EPHEMERIS_TYPE": 0, "CLASSIFICATION_TYPE": "U", "NORAD_CAT_ID": 49056, "ELEMENT_SET_NO": 999, "REV_AT_EPOCH": 1609, "BSTAR": 0, "MEAN_MOTION_DOT": 1.49e-06, "MEAN_MOTION_DDOT": 0}, "tle": {"line1": "1 49056U 21069B   25350.42321441  .00000149  00000+0  00000+0 0  9990", "line2": "2 49056   0.0118   5.2060 0003568 272.6079   7.5753  1.00273452 16091"}}, "geometry": {"type": "Point", "coordinates": [-151.80718629477644, -0.019503824138022822]}}, {"type": "Feature", "properties": {"norad_id": 53765, "name": "EUTELSAT KONNECT VHTS", "group": "eutelsat", "lat": 0.05276257186446161, "lon": 163.21477885707202, "alt_km": 35784.72610274982, "timestamp": "2025-12-17T04:57:44.071225+00:00", "meta": {"OBJECT_NAME": "EUTELSAT KONNECT VHTS", "OBJECT_ID": "2022-110A", "EPOCH": "2025-12-16T18:30:23.980032", "MEAN_MOTION": 1.00270348, "ECCENTRICITY": 0.00023107, "INCLINATION": 0.0649, "RA_OF_ASC_NODE": 101.3721, "ARG_OF_PERICENTER": 141.4952, "MEAN_ANOMALY": 123.1246, "EPHEMERIS_TYPE": 0, "CLASSIFICATION_TYPE": "U", "NORAD_CAT_ID": 53765, "ELEMENT_SET_NO": 999, "REV_AT_EPOCH": 499, "BSTAR": 0, "MEAN_MOTION_DOT": 4.1e-07, "MEAN_MOTION_DDOT": 0}, "tle": {"line1": "1 53765U 22110A   25350.77111088  .00000041  00000+0  00000+0 0  9993", "line2": "2 53765   0.0649 101.3721 0002310 141.4952 123.1246  1.00270348  4990"}}, "geometry": {"type": "Point", "coordinates": [163.21477885707202, 0.05276257186446161]}}, {"type": "Feature", "properties": {"norad_id": 54048, "name": "EUTELSAT HOTBIRD 13F", "group": "eutelsat", "lat": -0.044843890760934396, "lon": 173.5059152385687, "alt_km": 35795.687962451586, "timestamp": "2025-12-17T04:57:44.071236+00:00", "meta": {"OBJECT_NAME": "EUTELSAT HOTBIRD 13F", "OBJECT_ID": "2022-134A", "EPOCH": "2025-12-14T22:02:26.653056", "MEAN_MOTION": 1.0027139, "ECCENTRICITY": 0.00023413, "INCLINATION": 0.0492, "RA_OF_ASC_NODE": 293.4772, "ARG_OF_PERICENTER": 68.5165, "MEAN_ANOMALY": 65.4415, "EPHEMERIS_TYPE": 0, "CLASSIFICATION_TYPE": "U", "NORAD_CAT_ID": 54048, "ELEMENT_SET_NO": 999, "REV_AT_EPOCH": 1152, "BSTAR": 0, "MEAN_MOTION_DOT": 1.07e-06, "MEAN_MOTION_DDOT": 0}, "tle": {"line1": "1 54048U 22134A   25348.91836404  .00000107  00000+0  00000+0 0  9996", "line2": "2 54048   0.0492 293.4772 0002341  68.5165  65.4415  1.00271390 11520"}}, "geometry": {"type": "Point", "coordinates": [173.5059152385687, -0.044843890760934396]}}, {"type": "Feature", "properties": {"norad_id": 54225, "name": "EUTELSAT HOTBIRD 13G", "group": "eutelsat", "lat": -0.04369414686158882, "lon": 173.49972089520526, "alt_km": 35778.236334551126, "timestamp": "2025-12-17T04:57:44.071246+00:00", "meta": {"OBJECT_NAME": "EUTELSAT HOTBIRD 13G", "OBJECT_ID": "2022-146A", "EPOCH": "2025-12-16T18:33:16.204608", "MEAN_MOTION": 1.00271926, "ECCENTRICITY": 0.00018537, "INCLINATION": 0.0513, "RA_OF_ASC_NODE": 235.9027, "ARG_OF_PERICENTER": 298.6351, "MEAN_ANOMALY": 202.4305, "EPHEMERIS_TYPE": 0, "CLASSIFICATION_TYPE": "U", "NORAD_CAT_ID": 54225, "ELEMENT_SET_NO": 999, "REV_AT_EPOCH": 563, "BSTAR": 0, "MEAN_MOTION_DOT": 1.11e-06, "MEAN_MOTION_DDOT": 0}, "tle": {"line1": "1 54225U 22146A   25350.77310422  .00000111  00000+0  00000+0 0  9995", "line2": "2 54225   0.0513 235.9027 0001853 298.6351 202.4305  1.00271926  5636"}}, "geometry": {"type": "Point", "coordinates": [173.49972089520526, -0.04369414686158882]}}, {"type": "Feature", "properties": {"norad_id": 54259, "name": "EUTELSAT 10B", "group": "eutelsat", "lat": 0.04997348479663327, "lon": 170.49129332984023, "alt_km": 35784.20124990143, "timestamp": "2025-12-17T04:57:44.071257+00:00", "meta": {"OBJECT_NAME": "EUTELSAT 10B", "OBJECT_ID": "2022-157A", "EPOCH": "2025-12-16T18:32:23.789184", "MEAN_MOTION": 1.00271819, "ECCENTRICITY": 6.785e-05, "INCLINATION": 0.0623, "RA_OF_ASC_NODE": 99.2195, "ARG_OF_PERICENTER": 21.2994, "MEAN_ANOMALY": 253.2156, "EPHEMERIS_TYPE": 0, "CLASSIFICATION_TYPE": "U", "NORAD_CAT_ID": 54259, "ELEMENT_SET_NO": 999, "REV_AT_EPOCH": 1119, "BSTAR": 0, "MEAN_MOTION_DOT": 9.2e-07, "MEAN_MOTION_DDOT": 0}, "tle": {"line1": "1 54259U 22157A   25350.77249756  .00000092  00000+0  00000+0 0  9993", "line2": "2 54259   0.0623  99.2195 0000678  21.2994 253.2156  1.00271819 11196"}}, "geometry": {"type": "Point", "coordinates": [170.49129332984023, 0.04997348479663327]}}, {"type": "Feature", "properties": {"norad_id": 59346, "name": "EUTELSAT 36D", "group": "eutelsat", "lat": -0.016720008517372077, "lon": -163.66375533115033, "alt_km": 35787.8218881142, "timestamp": "2025-12-17T04:57:44.071267+00:00", "meta": {"OBJECT_NAME": "EUTELSAT 36D", "OBJECT_ID": "2024-059A", "EPOCH": "2025-12-16T15:14:19.027680", "MEAN_MOTION": 1.00271145, "ECCENTRICITY": 3.915e-05, "INCLINATION": 0.0246, "RA_OF_ASC_NODE": 4.3594, "ARG_OF_PERICENTER": 5.8864, "MEAN_ANOMALY": 339.6859, "EPHEMERIS_TYPE": 0, "CLASSIFICATION_TYPE": "U", "NORAD_CAT_ID": 59346, "ELEMENT_SET_NO": 999, "REV_AT_EPOCH": 631, "BSTAR": 0, "MEAN_MOTION_DOT": 0, "MEAN_MOTION_DDOT": 0}, "tle": {"line1": "1 59346U 24059A   25350.63494245  .00000000  00000+0  00000+0 0  9997", "line2": "2 59346   0.0246   4.3594 0000391   5.8864 339.6859  1.00271145  6314"}}, "geometry": {"type": "Point", "coordinates": [-163.66375533115033, -0.016720008517372077]}}]}